OBJECT_NAME,OBJECT_ID,EPOCH,MEAN_MOTION,ECCENTRICITY,INCLINATION,RA_OF_ASC_NODE,ARG_OF_PERICENTER,MEAN_ANOMALY,EPHEMERIS_TYPE,CLASSIFICATION_TYPE,NORAD_CAT_ID,ELEMENT_SET_NO,REV_AT_EPOCH,BSTAR,MEAN_MOTION_DOT,MEAN_MOTION_DDOT
HAWK-6B,2023-011A,2026-07-16T08:41:25.559232,15.23160082,.0004316,40.4972,181.8706,246.4239,113.6117,0,U,55324,999,19229,.11122E-3,.2488E-4,0
HAWK-6C,2023-011C,2026-07-16T08:40:30.952704,15.23160464,.000483,40.4963,178.7100,240.0320,120.0010,0,U,55326,999,19230,.97874E-4,.2165E-4,0
HAWK-6A,2023-011D,2026-07-16T08:40:34.203072,15.23160255,.0004429,40.4973,180.3367,237.1478,122.8905,0,U,55327,999,19230,.10286E-3,.2286E-4,0
HAWK-7A,2023-054P,2026-07-16T17:16:58.686816,15.27641958,.0001252,97.2658,84.3065,324.0087,36.1068,0,U,56191,999,18153,.11301E-3,.2981E-4,0
HAWK-7B,2023-054R,2026-07-16T17:16:52.868640,15.27640355,.0001152,97.2685,82.5808,13.1636,346.9634,0,U,56193,999,18153,.11392E-3,.3006E-4,0
HAWK-7C,2023-054Y,2026-07-16T15:42:22.579200,15.27642849,.0000779,97.2660,83.2766,347.8558,12.2662,0,U,56200,999,18152,.116E-3,.3062E-4,0
